{"type": "FeatureCollection", "features": [ {"type": "Feature", "properties": {"norad_id": 43010, "name": "FENGYUN 3D", "group": "weather", "lat": -80.98356170870755, "lon": 35.873419613436006, "alt_km": 833.6498744934916, "timestamp": "2025-12-09T14:52:25.808332+00:00", "meta": {"OBJECT_NAME": "FENGYUN 3D", "OBJECT_ID": "2017-072A", "EPOCH": "2025-12-09T06:50:13.231104", "MEAN_MOTION": 14.19682196, "ECCENTRICITY": 7.44e-05, "INCLINATION": 98.9891, "RA_OF_ASC_NODE": 309.5431, "ARG_OF_PERICENTER": 192.1031, "MEAN_ANOMALY": 168.0127, "EPHEMERIS_TYPE": 0, "CLASSIFICATION_TYPE": "U", "NORAD_CAT_ID": 43010, "ELEMENT_SET_NO": 999, "REV_AT_EPOCH": 41804, "BSTAR": 9.7830863e-05, "MEAN_MOTION_DOT": 1.61e-06, "MEAN_MOTION_DDOT": 0}, "tle": {"line1": "1 43010U 17072A   25343.28487536  .00000161  00000+0  97831-4 0  9994", "line2": "2 43010  98.9891 309.5431 0000744 192.1031 168.0127 14.19682196418040"}}, "geometry": {"type": "Point", "coordinates": [35.873419613436006, -80.98356170870755]}}, {"type": "Feature", "properties": {"norad_id": 43013, "name": "NOAA 20 (JPSS-1)", "group": "weather", "lat": 63.354404758529064, "lon": -97.94473065786502, "alt_km": 819.3691821023449, "timestamp": "2025-12-09T14:52:25.808344+00:00", "meta": {"OBJECT_NAME": "NOAA 20 (JPSS-1)", "OBJECT_ID": "2017-073A", "EPOCH": "2025-12-09T06:06:42.273216", "MEAN_MOTION": 14.19524316, "ECCENTRICITY": 0.00021404, "INCLINATION": 98.7594, "RA_OF_ASC_NODE": 279.5897, "ARG_OF_PERICENTER": 92.3447, "MEAN_ANOMALY": 267.7974, "EPHEMERIS_TYPE": 0, "CLASSIFICATION_TYPE": "U", "NORAD_CAT_ID": 43013, "ELEMENT_SET_NO": 999, "REV_AT_EPOCH": 41752, "BSTAR": 0.00010724168, "MEAN_MOTION_DOT": 1.82e-06, "MEAN_MOTION_DDOT": 0}, "tle": {"line1": "1 43013U 17073A   25343.25465594  .00000182  00000+0  10724-3 0  9993", "line2": "2 43013  98.7594 279.5897 0002140  92.3447 267.7974 14.19524316417525"}}, "geometry": {"type": "Point", "coordinates": [-97.94473065786502, 63.354404758529064]}}, {"type": "Feature", "properties": {"norad_id": 43226, "name": "GOES 17", "group": "weather", "lat": 0.3627614475116491, "lon": -147.8173931547069, "alt_km": 35779.51498021649, "timestamp": "2025-12-09T14:52:25.808356+00:00", "meta": {"OBJECT_NAME": "GOES 17", "OBJECT_ID": "2018-022A", "EPOCH": "2025-12-09T07:07:50.545920", "MEAN_MOTION": 1.00271678, "ECCENTRICITY": 0.00034092, "INCLINATION": 0.4511, "RA_OF_ASC_NODE": 89.1652, "ARG_OF_PERICENTER": 186.0646, "MEAN_ANOMALY": 180.5247, "EPHEMERIS_TYPE": 0, "CLASSIFICATION_TYPE": "U", "NORAD_CAT_ID": 43226, "ELEMENT_SET_NO": 999, "REV_AT_EPOCH": 2852, "BSTAR": 0, "MEAN_MOTION_DOT": -1.8e-06, "MEAN_MOTION_DDOT": 0}, "tle": {"line1": "1 43226U 18022A   25343.29711280 -.00000180  00000+0  00000+0 0  9995", "line2": "2 43226   0.4511  89.1652 0003409 186.0646 180.5247  1.00271678 28524"}}, "geometry": {"type": "Point", "coordinates": [-147.8173931547069, 0.3627614475116491]}}, {"type": "Feature", "properties": {"norad_id": 43491, "name": "FENGYUN 2H", "group": "weather", "lat": -2.1956165397436624, "lon": 21.124152074113283, "alt_km": 35795.43970226453, "timestamp": "2025-12-09T14:52:25.808369+00:00", "meta": {"OBJECT_NAME": "FENGYUN 2H", "OBJECT_ID": "2018-050A", "EPOCH": "2025-12-09T01:58:00.442848", "MEAN_MOTION": 1.00271088, "ECCENTRICITY": 0.0002944, "INCLINATION": 2.5409, "RA_OF_ASC_NODE": 81.3558, "ARG_OF_PERICENTER": 164.2902, "MEAN_ANOMALY": 301.2959, "EPHEMERIS_TYPE": 0, "CLASSIFICATION_TYPE": "U", "NORAD_CAT_ID": 43491, "ELEMENT_SET_NO": 999, "REV_AT_EPOCH": 2753, "BSTAR": 0, "MEAN_MOTION_DOT": -1.28e-06, "MEAN_MOTION_DDOT": 0}, "tle": {"line1": "1 43491U 18050A   25343.08194957 -.00000128  00000+0  00000+0 0  9995", "line2": "2 43491   2.5409  81.3558 0002944 164.2902 301.2959  1.00271088 27539"}}, "geometry": {"type": "Point", "coordinates": [21.124152074113283, -2.1956165397436624]}}, {"type": "Feature", "properties": {"norad_id": 43689, "name": "METOP-C", "group": "weather", "lat": -3.84507187447106, "lon": -139.15211770903963, "alt_km": 824.4265578673512, "timestamp": "2025-12-09T14:52:25.808381+00:00", "meta": {"OBJECT_NAME": "METOP-C", "OBJECT_ID": "2018-087A", "EPOCH": "2025-12-09T07:15:17.848224", "MEAN_MOTION": 14.21509994, "ECCENTRICITY": 0.00014799, "INCLINATION": 98.6934, "RA_OF_ASC_NODE": 41.1245, "ARG_OF_PERICENTER": 48.2502, "MEAN_ANOMALY": 311.8801, "EPHEMERIS_TYPE": 0, "CLASSIFICATION_TYPE": "U", "NORAD_CAT_ID": 43689, "ELEMENT_SET_NO": 999, "REV_AT_EPOCH": 36785, "BSTAR": 0.00014129661, "MEAN_MOTION_DOT": 2.66e-06, "MEAN_MOTION_DDOT": 0}, "tle": {"line1": "1 43689U 18087A   25343.30228991  .00000266  00000+0  14130-3 0  9990", "line2": "2 43689  98.6934  41.1245 0001479  48.2502 311.8801 14.21509994367855"}}, "geometry": {"type": "Point", "coordinates": [-139.15211770903963, -3.84507187447106]}}, {"type": "Feature", "properties": {"norad_id": 43823, "name": "GEO-KOMPSAT-2A", "group": "weather", "lat": -0.01496736020664311, "lon": 69.97771729515978, "alt_km": 35787.00496146237, "timestamp": "2025-12-09T14:52:25.808392+00:00", "meta": {"OBJECT_NAME": "GEO-KOMPSAT-2A", "OBJECT_ID": "2018-100A", "EPOCH": "2025-12-08T09:04:40.751616", "MEAN_MOTION": 1.00270893, "ECCENTRICITY": 1.774e-05, "INCLINATION": 0.0576, "RA_OF_ASC_NODE": 113.8278, "ARG_OF_PERICENTER": 87.1447, "MEAN_ANOMALY": 140.8536, "EPHEMERIS_TYPE": 0, "CLASSIFICATION_TYPE": "U", "NORAD_CAT_ID": 43823, "ELEMENT_SET_NO": 999, "REV_AT_EPOCH": 2571, "BSTAR": 0, "MEAN_MOTION_DOT": -3.41e-06, "MEAN_MOTION_DDOT": 0}, "tle": {"line1": "1 43823U 18100A   25342.37824944 -.00000341  00000+0  00000+0 0  9994", "line2": "2 43823   0.0576 113.8278 0000177  87.1447 140.8536  1.00270893 25718"}}, "geometry": {"type": "Point", "coordinates": [69.97771729515978, -0.01496736020664311]}}, {"type": "Feature", "properties": {"norad_id": 44387, "name": "METEOR-M2 2", "group": "weather", "lat": -45.760826791722565, "lon": 134.05336038899267, "alt_km": 817.3549123306957, "timestamp": "2025-12-09T14:52:25.808404+00:00", "meta": {"OBJECT_NAME": "METEOR-M2 2", "OBJECT_ID": "2019-038A", "EPOCH": "2025-12-09T07:04:12.673632", "MEAN_MOTION": 14.24289677, "ECCENTRICITY": 0.00010946, "INCLINATION": 98.8969, "RA_OF_ASC_NODE": 322.9809, "ARG_OF_PERICENTER": 154.486, "MEAN_ANOMALY": 205.6372, "EPHEMERIS_TYPE": 0, "CLASSIFICATION_TYPE": "U", "NORAD_CAT_ID": 44387, "ELEMENT_SET_NO": 999, "REV_AT_EPOCH": 33426, "BSTAR": 0.00022722078, "MEAN_MOTION_DOT": 4.79e-06, "MEAN_MOTION_DDOT": 0}, "tle": {"line1": "1 44387U 19038A   25343.29459113  .00000479  00000+0  22722-3 0  9995", "line2": "2 44387  98.8969 322.9809 0001094 154.4860 205.6372 14.24289677334265"}}, "geometry": {"type": "Point", "coordinates": [134.05336038899267, -45.760826791722565]}}, {"type": "Feature", "properties": {"norad_id": 47719, "name": "ARKTIKA-M 1", "group": "weather", "lat": 33.8173753980393, "lon": 104.24928993106262, "alt_km": 17233.83419313215, "timestamp": "2025-12-09T14:52:25.808425+00:00", "meta": {"OBJECT_NAME": "ARKTIKA-M 1", "OBJECT_ID": "2021-016A", "EPOCH": "2025-12-09T02:05:46.689216", "MEAN_MOTION": 2.00743922, "ECCENTRICITY": 0.7204271, "INCLINATION": 63.1782, "RA_OF_ASC_NODE": 84.5148, "ARG_OF_PERICENTER": 269.1088, "MEAN_ANOMALY": 15.6099, "EPHEMERIS_TYPE": 0, "CLASSIFICATION_TYPE": "U", "NORAD_CAT_ID": 47719, "ELEMENT_SET_NO": 999, "REV_AT_EPOCH": 3497, "BSTAR": 0, "MEAN_MOTION_DOT": -3.4e-07, "MEAN_MOTION_DDOT": 0}, "tle": {"line1": "1 47719U 21016A   25343.08734594 -.00000034  00000+0  00000+0 0  9991", "line2": "2 47719  63.1782  84.5148 7204271 269.1088  15.6099  2.00743922 34976"}}, "geometry": {"type": "Point", "coordinates": [104.24928993106262, 33.8173753980393]}}, {"type": "Feature", "properties": {"norad_id": 49008, "name": "FENGYUN 3E", "group": "weather", "lat": -54.30395097293447, "lon": 151.80351776153603, "alt_km": 832.5077332197852, "timestamp": "2025-12-09T14:52:25.808437+00:00", "meta": {"OBJECT_NAME": "FENGYUN 3E", "OBJECT_ID": "2021-062A", "EPOCH": "2025-12-09T07:00:16.295328", "MEAN_MOTION": 14.19878924, "ECCENTRICITY": 6.152e-05, "INCLINATION": 98.7472, "RA_OF_ASC_NODE": 343.8536, "ARG_OF_PERICENTER": 294.4656, "MEAN_ANOMALY": 65.6456, "EPHEMERIS_TYPE": 0, "CLASSIFICATION_TYPE": "U", "NORAD_CAT_ID": 49008, "ELEMENT_SET_NO": 999, "REV_AT_EPOCH": 22963, "BSTAR": 6.2804901e-05, "MEAN_MOTION_DOT": 8.9e-07, "MEAN_MOTION_DDOT": 0}, "tle": {"line1": "1 49008U 21062A   25343.29185527  .00000089  00000+0  62805-4 0  9999", "line2": "2 49008  98.7472 343.8536 0000615 294.4656  65.6456 14.19878924229637"}}, "geometry": {"type": "Point", "coordinates": [151.80351776153603, -54.30395097293447]}}, {"type": "Feature", "properties": {"norad_id": 51850, "name": "GOES 18", "group": "weather", "lat": 0.002315709824797895, "lon": 164.7048867657279, "alt_km": 35788.41457387915, "timestamp": "2025-12-09T14:52:25.808449+00:00", "meta": {"OBJECT_NAME": "GOES 18", "OBJECT_ID": "2022-021A", "EPOCH": "2025-12-09T07:08:15.106848", "MEAN_MOTION": 1.00271015, "ECCENTRICITY": 7.148e-05, "INCLINATION": 0.0159, "RA_OF_ASC_NODE": 98.7289, "ARG_OF_PERICENTER": 201.683, "MEAN_ANOMALY": 107.9405, "EPHEMERIS_TYPE": 0, "CLASSIFICATION_TYPE": "U", "NORAD_CAT_ID": 51850, "ELEMENT_SET_NO": 999, "REV_AT_EPOCH": 468, "BSTAR": 0, "MEAN_MOTION_DOT": 9.9e-07, "MEAN_MOTION_DDOT": 0}, "tle": {"line1": "1 51850U 22021A   25343.29739707  .00000099  00000+0  00000+0 0  9993", "line2": "2 51850   0.0159  98.7289 0000714 201.6830 107.9405  1.00271015  4682"}}, "geometry": {"type": "Point", "coordinates": [164.7048867657279, 0.002315709824797895]}}]}